ICEYE-X2                
1 43800U 18099AU  26190.88553220  .00003848  00000+0  19240-3 0  9994
2 43800  97.4351 244.3286 0009263 215.1148 144.9476 15.17999635416266
ICEYE-X4                
1 44390U 19038D   26190.83346646  .00009030  00000+0  31501-3 0  9993
2 44390  97.8755 225.0836 0012327 217.5886 142.4493 15.29803741385262
ICEYE-X7                
1 46496U 20068L   26190.87505589  .00008485  00000+0  27700-3 0  9993
2 46496  97.7499 158.4412 0005527 236.5063 123.5650 15.32022993318263
ICEYE-X6                
1 46497U 20068M   26190.86945984  .00002525  00000+0  18436-3 0  9995
2 46497  98.0978 185.6271 0007670  25.2402 334.9196 15.04645592316644
ICEYE-X21               
1 55049U 23001AS  26175.21618542  .01585954  23968-5  60214-3 0  9995
2 55049  97.3001 262.6152 0012377 285.9702  74.0225 16.24069885194757
ICEYE-X25               
1 56963U 23084AH  26190.80946858  .00039039  00000+0  43952-3 0  9991
2 56963  97.5899 338.6543 0004010 202.6554 157.4527 15.62465537171508
ICEYE-X31               
1 58288U 23174AJ  26190.89242363  .00012359  00000+0  36543-3 0  9996
2 58288  97.3775 266.6364 0002168 202.2850 157.8299 15.35061959148233
ICEYE-X34               
1 58294U 23174AQ  26189.75856509  .00129633  00000+0  10776-2 0  9992
2 58294  97.3861 282.0601 0001600 191.4512 168.6714 15.69750750149128
ICEYE-X35               
1 58302U 23174AY  26190.84935126  .00044244  00000+0  66384-3 0  9998
2 58302  97.3784 276.0812 0008279 124.3308 235.8730 15.54753769148868
ICEYE-X38               
1 59100U 24043C   26190.33967494  .00003550  00000+0  20470-3 0  9999
2 59100  97.8425 334.7017 0002844  37.1672 322.9754 15.13059933115021
ICEYE-X37               
1 59102U 24043E   26190.17033470  .00002192  00000+0  15355-3 0  9998
2 59102  97.8336 327.5215 0013619 297.0172  62.9664 15.06269953128390
ICEYE-X36               
1 59103U 24043F   26190.16148250  .00002211  00000+0  15122-3 0  9995
2 59103  97.8388 328.6290 0004768 236.8227 123.2543 15.07205059128452
ICEYE-X43               
1 60539U 24149BZ  26189.77997472  .00001755  00000+0  14675-3 0  9994
2 60539  97.6814 266.4552 0006953  14.9788 345.1640 14.99772584103351
ICEYE-X39               
1 60546U 24149CG  26189.75770551  .00002756  00000+0  22606-3 0  9992
2 60546  97.6770 266.4889 0006986  63.7023 296.4918 15.00041901103354
ICEYE-X33               
1 60548U 24149CJ  26189.76968319  .00003205  00000+0  25626-3 0  9991
2 60548  97.7339 268.7997 0001924  74.9418 285.2019 15.00930628103443
