{"fetched_at":"2026-07-10T07:59:05.177Z","source":"https://celestrak.org/NORAD/elements/gp.php?NAME=ICEYE&FORMAT=JSON","constellation":"iceye","records":[{"OBJECT_NAME":"ICEYE-X2","OBJECT_ID":"2018-099AU","EPOCH":"2026-07-09T21:15:09.982080","CLASSIFICATION_TYPE":"U","MEAN_MOTION":15.17999635,"ECCENTRICITY":0.0009263,"INCLINATION":97.4351,"RA_OF_ASC_NODE":244.3286,"ARG_OF_PERICENTER":215.1148,"MEAN_ANOMALY":144.9476,"EPHEMERIS_TYPE":0,"NORAD_CAT_ID":43800,"ELEMENT_SET_NO":999,"REV_AT_EPOCH":41626,"BSTAR":0.0001924,"MEAN_MOTION_DOT":0.00003848,"MEAN_MOTION_DDOT":0},{"OBJECT_NAME":"ICEYE-X4","OBJECT_ID":"2019-038D","EPOCH":"2026-07-09T20:00:11.502144","CLASSIFICATION_TYPE":"U","MEAN_MOTION":15.29803741,"ECCENTRICITY":0.0012327,"INCLINATION":97.8755,"RA_OF_ASC_NODE":225.0836,"ARG_OF_PERICENTER":217.5886,"MEAN_ANOMALY":142.4493,"EPHEMERIS_TYPE":0,"NORAD_CAT_ID":44390,"ELEMENT_SET_NO":999,"REV_AT_EPOCH":38526,"BSTAR":0.00031501,"MEAN_MOTION_DOT":0.0000903,"MEAN_MOTION_DDOT":0},{"OBJECT_NAME":"ICEYE-X7","OBJECT_ID":"2020-068L","EPOCH":"2026-07-09T21:00:04.828896","CLASSIFICATION_TYPE":"U","MEAN_MOTION":15.32022993,"ECCENTRICITY":0.0005527,"INCLINATION":97.7499,"RA_OF_ASC_NODE":158.4412,"ARG_OF_PERICENTER":236.5063,"MEAN_ANOMALY":123.565,"EPHEMERIS_TYPE":0,"NORAD_CAT_ID":46496,"ELEMENT_SET_NO":999,"REV_AT_EPOCH":31826,"BSTAR":0.000277,"MEAN_MOTION_DOT":0.00008485,"MEAN_MOTION_DDOT":0},{"OBJECT_NAME":"ICEYE-X6","OBJECT_ID":"2020-068M","EPOCH":"2026-07-09T20:52:01.330176","CLASSIFICATION_TYPE":"U","MEAN_MOTION":15.04645592,"ECCENTRICITY":0.000767,"INCLINATION":98.0978,"RA_OF_ASC_NODE":185.6271,"ARG_OF_PERICENTER":25.2402,"MEAN_ANOMALY":334.9196,"EPHEMERIS_TYPE":0,"NORAD_CAT_ID":46497,"ELEMENT_SET_NO":999,"REV_AT_EPOCH":31664,"BSTAR":0.00018436,"MEAN_MOTION_DOT":0.00002525,"MEAN_MOTION_DDOT":0},{"OBJECT_NAME":"ICEYE-X21","OBJECT_ID":"2023-001AS","EPOCH":"2026-06-24T05:11:18.420288","CLASSIFICATION_TYPE":"U","MEAN_MOTION":16.24069885,"ECCENTRICITY":0.00123774,"INCLINATION":97.3001,"RA_OF_ASC_NODE":262.6152,"ARG_OF_PERICENTER":285.9702,"MEAN_ANOMALY":74.0225,"EPHEMERIS_TYPE":0,"NORAD_CAT_ID":55049,"ELEMENT_SET_NO":999,"REV_AT_EPOCH":19475,"BSTAR":0.000602142,"MEAN_MOTION_DOT":0.01585954,"MEAN_MOTION_DDOT":0.000002396838},{"OBJECT_NAME":"ICEYE-X25","OBJECT_ID":"2023-084AH","EPOCH":"2026-07-09T19:25:38.085312","CLASSIFICATION_TYPE":"U","MEAN_MOTION":15.62465537,"ECCENTRICITY":0.000401,"INCLINATION":97.5899,"RA_OF_ASC_NODE":338.6543,"ARG_OF_PERICENTER":202.6554,"MEAN_ANOMALY":157.4527,"EPHEMERIS_TYPE":0,"NORAD_CAT_ID":56963,"ELEMENT_SET_NO":999,"REV_AT_EPOCH":17150,"BSTAR":0.00043952,"MEAN_MOTION_DOT":0.00039039,"MEAN_MOTION_DDOT":0},{"OBJECT_NAME":"ICEYE-X31","OBJECT_ID":"2023-174AJ","EPOCH":"2026-07-09T21:25:05.401632","CLASSIFICATION_TYPE":"U","MEAN_MOTION":15.35061959,"ECCENTRICITY":0.0002168,"INCLINATION":97.3775,"RA_OF_ASC_NODE":266.6364,"ARG_OF_PERICENTER":202.285,"MEAN_ANOMALY":157.8299,"EPHEMERIS_TYPE":0,"NORAD_CAT_ID":58288,"ELEMENT_SET_NO":999,"REV_AT_EPOCH":14823,"BSTAR":0.00036543,"MEAN_MOTION_DOT":0.00012359,"MEAN_MOTION_DDOT":0},{"OBJECT_NAME":"ICEYE-X34","OBJECT_ID":"2023-174AQ","EPOCH":"2026-07-08T18:12:20.023776","CLASSIFICATION_TYPE":"U","MEAN_MOTION":15.6975075,"ECCENTRICITY":0.00016009,"INCLINATION":97.3861,"RA_OF_ASC_NODE":282.0601,"ARG_OF_PERICENTER":191.4512,"MEAN_ANOMALY":168.6714,"EPHEMERIS_TYPE":0,"NORAD_CAT_ID":58294,"ELEMENT_SET_NO":999,"REV_AT_EPOCH":14912,"BSTAR":0.001077636,"MEAN_MOTION_DOT":0.00129633,"MEAN_MOTION_DDOT":0},{"OBJECT_NAME":"ICEYE-X35","OBJECT_ID":"2023-174AY","EPOCH":"2026-07-09T20:23:03.948864","CLASSIFICATION_TYPE":"U","MEAN_MOTION":15.54753769,"ECCENTRICITY":0.0008279,"INCLINATION":97.3784,"RA_OF_ASC_NODE":276.0812,"ARG_OF_PERICENTER":124.3308,"MEAN_ANOMALY":235.873,"EPHEMERIS_TYPE":0,"NORAD_CAT_ID":58302,"ELEMENT_SET_NO":999,"REV_AT_EPOCH":14886,"BSTAR":0.00066384,"MEAN_MOTION_DOT":0.00044244,"MEAN_MOTION_DDOT":0},{"OBJECT_NAME":"ICEYE-X38","OBJECT_ID":"2024-043C","EPOCH":"2026-07-09T08:09:07.914816","CLASSIFICATION_TYPE":"U","MEAN_MOTION":15.13059933,"ECCENTRICITY":0.00028441,"INCLINATION":97.8425,"RA_OF_ASC_NODE":334.7017,"ARG_OF_PERICENTER":37.1672,"MEAN_ANOMALY":322.9754,"EPHEMERIS_TYPE":0,"NORAD_CAT_ID":59100,"ELEMENT_SET_NO":999,"REV_AT_EPOCH":11502,"BSTAR":0.00020470449,"MEAN_MOTION_DOT":0.0000355,"MEAN_MOTION_DDOT":0},{"OBJECT_NAME":"ICEYE-X37","OBJECT_ID":"2024-043E","EPOCH":"2026-07-09T04:05:16.918080","CLASSIFICATION_TYPE":"U","MEAN_MOTION":15.06269953,"ECCENTRICITY":0.00136199,"INCLINATION":97.8336,"RA_OF_ASC_NODE":327.5215,"ARG_OF_PERICENTER":297.0172,"MEAN_ANOMALY":62.9664,"EPHEMERIS_TYPE":0,"NORAD_CAT_ID":59102,"ELEMENT_SET_NO":999,"REV_AT_EPOCH":12839,"BSTAR":0.00015354558,"MEAN_MOTION_DOT":0.00002192,"MEAN_MOTION_DDOT":0},{"OBJECT_NAME":"ICEYE-X36","OBJECT_ID":"2024-043F","EPOCH":"2026-07-09T03:52:32.088000","CLASSIFICATION_TYPE":"U","MEAN_MOTION":15.07205059,"ECCENTRICITY":0.00047687,"INCLINATION":97.8388,"RA_OF_ASC_NODE":328.629,"ARG_OF_PERICENTER":236.8227,"MEAN_ANOMALY":123.2543,"EPHEMERIS_TYPE":0,"NORAD_CAT_ID":59103,"ELEMENT_SET_NO":999,"REV_AT_EPOCH":12845,"BSTAR":0.00015122012,"MEAN_MOTION_DOT":0.00002211,"MEAN_MOTION_DDOT":0},{"OBJECT_NAME":"ICEYE-X43","OBJECT_ID":"2024-149BZ","EPOCH":"2026-07-08T18:43:09.815808","CLASSIFICATION_TYPE":"U","MEAN_MOTION":14.99772584,"ECCENTRICITY":0.00069538,"INCLINATION":97.6814,"RA_OF_ASC_NODE":266.4552,"ARG_OF_PERICENTER":14.9788,"MEAN_ANOMALY":345.164,"EPHEMERIS_TYPE":0,"NORAD_CAT_ID":60539,"ELEMENT_SET_NO":999,"REV_AT_EPOCH":10335,"BSTAR":0.00014675091,"MEAN_MOTION_DOT":0.00001755,"MEAN_MOTION_DDOT":0},{"OBJECT_NAME":"ICEYE-X39","OBJECT_ID":"2024-149CG","EPOCH":"2026-07-08T18:11:05.756064","CLASSIFICATION_TYPE":"U","MEAN_MOTION":15.00041901,"ECCENTRICITY":0.00069867,"INCLINATION":97.677,"RA_OF_ASC_NODE":266.4889,"ARG_OF_PERICENTER":63.7023,"MEAN_ANOMALY":296.4918,"EPHEMERIS_TYPE":0,"NORAD_CAT_ID":60546,"ELEMENT_SET_NO":999,"REV_AT_EPOCH":10335,"BSTAR":0.00022606183,"MEAN_MOTION_DOT":0.00002756,"MEAN_MOTION_DDOT":0},{"OBJECT_NAME":"ICEYE-X33","OBJECT_ID":"2024-149CJ","EPOCH":"2026-07-08T18:28:20.627616","CLASSIFICATION_TYPE":"U","MEAN_MOTION":15.00930628,"ECCENTRICITY":0.00019242,"INCLINATION":97.7339,"RA_OF_ASC_NODE":268.7997,"ARG_OF_PERICENTER":74.9418,"MEAN_ANOMALY":285.2019,"EPHEMERIS_TYPE":0,"NORAD_CAT_ID":60548,"ELEMENT_SET_NO":999,"REV_AT_EPOCH":10344,"BSTAR":0.00025626102,"MEAN_MOTION_DOT":0.00003205,"MEAN_MOTION_DDOT":0}]}
